NORAD_CAT_ID,OBJECT_NAME,OBJECT_TYPE,EPOCH,MEAN_MOTION,ECCENTRICITY,INCLINATION,RA_OF_ASC_NODE,ARG_OF_PERICENTER,MEAN_ANOMALY,BSTAR,MEAN_MOTION_DOT,MEAN_MOTION_DDOT,TLE_LINE0,TLE_LINE1,TLE_LINE2,SEMIMAJOR_AXIS,PERIOD,APOGEE,PERIGEE,DECAYED
52879.0,STARLINK-4139,PAYLOAD,2022-09-08 14:00:01,15.49886481,0.0001684,53.2173,354.7925,7.7039,338.3702,-3.7994e-05,-2.608e-05,0.0,0 STARLINK-4139,1 52879U 22062BB  22251.58334491 -.00002608  00000-0 -37994-4 0  9996,2 52879  53.2173 354.7925 0001684   7.7039 338.3702 15.49886481  1308,6795.195,92.91,418.204,415.916,0.0
52879.0,STARLINK-4139,PAYLOAD,2022-09-08 22:00:00,15.49980208,0.000135,53.2161,353.1867,330.9529,76.0268,-0.0019884,-0.0011208,0.0,0 STARLINK-4139,1 52879U 22062BB  22251.91667824 -.00112080  00000-0 -19884-2 0  9994,2 52879  53.2161 353.1867 0001350 330.9529  76.0268 15.49980208 13610,6794.920999999999,92.904,417.703,415.869,0.0
52879.0,STARLINK-4139,PAYLOAD,2022-09-09 06:00:00,15.49897341,0.0001097,53.2165,351.5922,335.8022,132.1572,0.00074913,0.00042314,0.0,0 STARLINK-4139,1 52879U 22062BB  22252.25001157  .00042314  00000-0  74913-3 0  9998,2 52879  53.2165 351.5922 0001097 335.8022 132.1572 15.49897341 13660,6795.163000000001,92.909,417.774,416.283,0.0
52879.0,STARLINK-4139,PAYLOAD,2022-09-09 14:00:01,15.49933195,0.0001355,53.2165,350.0012,346.6709,182.2293,-0.001701,-0.00095982,0.0,0 STARLINK-4139,1 52879U 22062BB  22252.58334491 -.00095982  00000-0 -17010-2 0  9999,2 52879  53.2165 350.0012 0001355 346.6709 182.2293 15.49933195  1305,6795.058000000001,92.907,417.844,416.003,0.0
52879.0,STARLINK-4139,PAYLOAD,2022-09-09 22:00:00,15.49882995,0.0001355,53.2167,348.4074,349.8015,240.0253,-0.00051823,-0.0002975,0.0,0 STARLINK-4139,1 52879U 22062BB  22252.91667824 -.00029750  00000-0 -51823-3 0  9996,2 52879  53.2167 348.4074 0001355 349.8015 240.0253 15.49882995  1301,6795.205,92.91,417.991,416.149,0.0
52879.0,STARLINK-4139,PAYLOAD,2022-09-10 06:00:02,15.49936521,0.0001099,53.2169,346.8169,359.6623,291.1247,-0.0022276,-0.00125106,0.0,0 STARLINK-4139,1 52879U 22062BB  22253.25002315 -.00125106  00000-0 -22276-2 0  9993,2 52879  53.2169 346.8169 0001099 359.6623 291.1247 15.49936521 13824,6795.049,92.907,417.66,416.167,0.0
52879.0,STARLINK-4139,PAYLOAD,2022-09-10 14:00:01,15.49810679,0.0001774,53.2177,345.2339,17.0185,334.6439,-0.0094212999999999,-0.00501039,0.0,0 STARLINK-4139,1 52879U 22062BB  22253.58334491 -.00501039  00000-0 -94213-2 0  9995,2 52879  53.2177 345.2339 0001774  17.0185 334.6439 15.49810679 13879,6795.416,92.915,418.487,416.076,0.0
52879.0,STARLINK-4139,PAYLOAD,2022-09-10 22:00:00,15.49511588,0.0001579,53.2175,343.646,34.4744,17.8061,-0.020836,-0.01059632,0.0,0 STARLINK-4139,1 52879U 22062BB  22253.91667824 -.01059632  00000-0 -20836-1 0  9998,2 52879  53.2175 343.6460 0001579  34.4744  17.8061 15.49511588 13925,6796.291,92.933,419.229,417.083,0.0
52879.0,STARLINK-4139,PAYLOAD,2022-09-11 14:00:01,15.47991836,0.0001789,53.2177,340.4734,41.2195,130.1431,-0.021936,-0.01057518,0.0,0 STARLINK-4139,1 52879U 22062BB  22254.58334491 -.01057518  00000-0 -21936-1 0  9996,2 52879  53.2177 340.4734 0001789  41.2195 130.1431 15.47991836  1300,6800.738,93.024,423.82,421.387,0.0
52879.0,STARLINK-4139,PAYLOAD,2022-09-11 22:00:00,15.47234365,0.0001629999999999,53.2174,338.8881,43.6399,185.8953,-0.0226169999999999,-0.0106135,0.0,0 STARLINK-4139,1 52879U 22062BB  22254.91667824 -.01061350  00000-0 -22617-1 0  9998,2 52879  53.2174 338.8881 0001630  43.6399 185.8953 15.47234365  1301,6802.958000000001,93.069,425.932,423.714,0.0
52879.0,STARLINK-4139,PAYLOAD,2022-09-12 14:00:01,15.45714957,0.0001548,53.2176,335.7266,39.7586,303.3826,-0.023811,-0.01060004,0.0,0 STARLINK-4139,1 52879U 22062BB  22255.58334491 -.01060004  00000-0 -23811-1 0  9995,2 52879  53.2176 335.7266 0001548  39.7586 303.3826 15.45714957  1302,6807.415,93.161,430.334,428.226,0.0
52879.0,STARLINK-4139,PAYLOAD,2022-09-12 22:00:00,15.44954407,0.000154,53.2175,334.1467,37.7041,0.8728,-0.024404,-0.01058437,0.0,0 STARLINK-4139,1 52879U 22062BB  22255.91667824 -.01058437  00000-0 -24404-1 0  9997,2 52879  53.2175 334.1467 0001540  37.7041   0.8728 15.44954407 14234,6809.649,93.207,432.56300000000016,430.465,0.0
52879.0,STARLINK-4139,PAYLOAD,2022-09-13 14:00:01,15.43433865,0.0001771,53.2176,330.9961,41.2283,105.4789,-0.025616,-0.01055097,0.0,0 STARLINK-4139,1 52879U 22062BB  22256.58334491 -.01055097  00000-0 -25616-1 0  9997,2 52879  53.2176 330.9961 0001771  41.2283 105.4789 15.43433865  1304,6814.121,93.298,437.193,434.779,0.0
52879.0,STARLINK-4139,PAYLOAD,2022-09-13 16:00:00,15.43241116,0.0001619,53.2174,330.6028,43.6029,206.3649,-0.025648,-0.01049985,0.0,0 STARLINK-4139,1 52879U 22062BB  22256.66667824 -.01049985  00000-0 -25648-1 0  9999,2 52879  53.2174 330.6028 0001619  43.6029 206.3649 15.43241116 14359,6814.688,93.31,437.656,435.45,0.0
52879.0,STARLINK-4139,PAYLOAD,2022-09-13 22:00:00,15.4267636,0.0001648,53.2176,329.4215,44.7772,154.6267,-0.026375,-0.01073269,0.0,0 STARLINK-4139,1 52879U 22062BB  22256.91667824 -.01073269  00000-0 -26375-1 0  9997,2 52879  53.2176 329.4215 0001648  44.7772 154.6267 15.42676360  1308,6816.351,93.344,439.34,437.093,0.0
52879.0,STARLINK-4139,PAYLOAD,2022-09-14 12:00:00,15.41344926,0.0001693,53.2174,326.6739,47.4567,151.9698,-0.027466,-0.0106906,0.0,0 STARLINK-4139,1 52879U 22062BB  22257.50001157 -.01069060  00000-0 -27466-1 0  9990,2 52879  53.2174 326.6739 0001693  47.4567 151.9698 15.41344926  1305,6820.276,93.425,443.296,440.986,0.0
52879.0,STARLINK-4139,PAYLOAD,2022-09-14 22:00:00,15.40396776,0.0001383,53.2176,324.7124,45.9419,306.076,-0.028432,-0.01071847,0.0,0 STARLINK-4139,1 52879U 22062BB  22257.91667824 -.01071847  00000-0 -28432-1 0  9994,2 52879  53.2176 324.7124 0001383  45.9419 306.0760 15.40396776  1301,6823.074000000001,93.482,445.883,443.996,0.0
52879.0,STARLINK-4139,PAYLOAD,2022-09-15 06:00:00,15.39680731,0.0001539,53.2172,323.1443,38.2478,2.7941,-0.030785,-0.01128144,0.0,0 STARLINK-4139,1 52879U 22062BB  22258.25001157 -.01128144  00000-0 -30785-1 0  9990,2 52879  53.2172 323.1443 0001539  38.2478   2.7941 15.39680731 14598,6825.19,93.526,448.105,446.004,0.0
52879.0,STARLINK-4139,PAYLOAD,2022-09-15 14:00:01,15.389089300000002,0.0001813,53.2174,321.5823,34.8559,54.3221,-0.0309879999999999,-0.0110879999999999,0.0,0 STARLINK-4139,1 52879U 22062BB  22258.58334491 -.01108800  00000-0 -30988-1 0  9998,2 52879  53.2174 321.5823 0001813  34.8559  54.3221 15.38908930  1303,6827.471,93.573,450.574,448.099,0.0
52879.0,STARLINK-4139,PAYLOAD,2022-09-15 22:00:00,15.38116571,0.0001797,53.2176,320.0199,37.3361,99.0815,-0.03053,-0.01067874,0.0,0 STARLINK-4139,1 52879U 22062BB  22258.91667824 -.01067874  00000-0 -30530-1 0  9992,2 52879  53.2176 320.0199 0001797  37.3361  99.0815 15.38116571  1302,6829.816,93.621,452.908,450.454,0.0
52879.0,STARLINK-4139,PAYLOAD,2022-09-16 02:00:01,15.37734994,0.0001561,53.2174,319.2387,38.5068,301.1799,-0.030844,-0.01065602,0.0,0 STARLINK-4139,1 52879U 22062BB  22259.08334491 -.01065602  00000-0 -30844-1 0  9997,2 52879  53.2174 319.2387 0001561  38.5068 301.1799 15.37734994 14727,6830.946,93.644,453.877,451.745,0.0
52879.0,STARLINK-4139,PAYLOAD,2022-09-16 14:00:01,15.36595279,0.0001656,53.2177,316.9023,47.3224,180.7977,-0.031938,-0.01063394,0.0,0 STARLINK-4139,1 52879U 22062BB  22259.58334491 -.01063394  00000-0 -31938-1 0  9993,2 52879  53.2177 316.9023 0001656  47.3224 180.7977 15.36595279  1307,6834.323,93.714,457.32,455.056,0.0
52879.0,STARLINK-4139,PAYLOAD,2022-09-16 22:00:00,15.35839375,0.0001563,53.2176,315.3435,44.7277,227.8746,-0.032938,-0.01069609,0.0,0 STARLINK-4139,1 52879U 22062BB  22259.91667824 -.01069609  00000-0 -32938-1 0  9995,2 52879  53.2176 315.3435 0001563  44.7277 227.8746 15.35839375  1306,6836.565,93.76,459.499,457.362,0.0
52879.0,STARLINK-4139,PAYLOAD,2022-09-17 14:00:01,15.34318338,0.0001595,53.2176,312.2367,38.4237,320.4052,-0.034457,-0.01065887,0.0,0 STARLINK-4139,1 52879U 22062BB  22260.58334491 -.01065887  00000-0 -34457-1 0  9993,2 52879  53.2176 312.2367 0001595  38.4237 320.4052 15.34318338  1307,6841.083000000001,93.853,464.039,461.857,0.0
52879.0,STARLINK-4139,PAYLOAD,2022-09-17 22:00:00,15.33559327,0.00016,53.2176,310.6833,37.0989,3.4756,-0.035354,-0.01067343,0.0,0 STARLINK-4139,1 52879U 22062BB  22260.91667824 -.01067343  00000-0 -35354-1 0  9995,2 52879  53.2176 310.6833 0001600  37.0989   3.4756 15.33559327  1306,6843.34,93.899,466.3,464.11,0.0
52879.0,STARLINK-4139,PAYLOAD,2022-09-18 14:00:01,15.32036731,0.0001647,53.2174,307.5872,44.6054,76.7839,-0.036849,-0.01060696,0.0,0 STARLINK-4139,1 52879U 22062BB  22261.58335648 -.01060696  00000-0 -36849-1 0  9999,2 52879  53.2174 307.5872 0001647  44.6054  76.7839 15.32036731  1303,6847.873000000001,93.993,470.866,468.611,0.0
52879.0,STARLINK-4139,PAYLOAD,2022-09-18 22:00:00,15.31279313,0.0001639,53.2175,306.0393,46.2887,114.0435,-0.037862,-0.0106392,0.0,0 STARLINK-4139,1 52879U 22062BB  22261.91667824 -.01063920  00000-0 -37862-1 0  9999,2 52879  53.2175 306.0393 0001639  46.2887 114.0435 15.31279313 15159,6850.130999999999,94.039,473.119,470.874,0.0
52879.0,STARLINK-4139,PAYLOAD,2022-09-19 14:00:01,15.29758279,0.0001520999999999,53.2174,302.9542,54.8064,180.8,-0.039536,-0.01059774,0.0,0 STARLINK-4139,1 52879U 22062BB  22262.58334491 -.01059774  00000-0 -39536-1 0  9996,2 52879  53.2174 302.9542 0001521  54.8064 180.8000 15.29758279  1302,6854.670999999999,94.133,477.579,475.494,0.0
52879.0,STARLINK-4139,PAYLOAD,2022-09-19 22:00:00,15.29000608,0.0001488,53.2176,301.4114,50.5204,221.3552,-0.040617,-0.01063169,0.0,0 STARLINK-4139,1 52879U 22062BB  22262.91667824 -.01063169  00000-0 -40617-1 0  9997,2 52879  53.2176 301.4114 0001488  50.5204 221.3552 15.29000608 15319,6856.936,94.179,479.821,477.78,0.0
